{"type": "FeatureCollection", "features": [ {"type": "Feature", "properties": {"norad_id": 33153, "name": "INTELSAT 25 (IS-25)", "group": "intelsat", "lat": 1.316898980790798, "lon": 117.62991952937348, "alt_km": 35804.57350835685, "timestamp": "2025-12-21T03:56:50.522004+00:00", "meta": {"OBJECT_NAME": "INTELSAT 25 (IS-25)", "OBJECT_ID": "2008-034A", "EPOCH": "2025-12-20T18:13:00.871104", "MEAN_MOTION": 1.0026996, "ECCENTRICITY": 0.00048, "INCLINATION": 2.2471, "RA_OF_ASC_NODE": 82.5644, "ARG_OF_PERICENTER": 188.0207, "MEAN_ANOMALY": 60.7433, "EPHEMERIS_TYPE": 0, "CLASSIFICATION_TYPE": "U", "NORAD_CAT_ID": 33153, "ELEMENT_SET_NO": 999, "REV_AT_EPOCH": 6390, "BSTAR": 0, "MEAN_MOTION_DOT": -2.02e-06, "MEAN_MOTION_DDOT": 0}, "tle": {"line1": "1 33153U 08034A   25354.75903786 -.00000202  00000+0  00000+0 0  9997", "line2": "2 33153   2.2471  82.5644 0004800 188.0207  60.7433  1.00269960 63904"}}, "geometry": {"type": "Point", "coordinates": [117.62991952937348, 1.316898980790798]}}, {"type": "Feature", "properties": {"norad_id": 33376, "name": "GALAXY 19 (G-19)", "group": "intelsat", "lat": 0.03087582874670852, "lon": 52.2085776283357, "alt_km": 35794.08084504788, "timestamp": "2025-12-21T03:56:50.522015+00:00", "meta": {"OBJECT_NAME": "GALAXY 19 (G-19)", "OBJECT_ID": "2008-045A", "EPOCH": "2025-12-20T16:11:29.093856", "MEAN_MOTION": 1.00271403, "ECCENTRICITY": 0.000252, "INCLINATION": 0.0149, "RA_OF_ASC_NODE": 308.6931, "ARG_OF_PERICENTER": 326.0211, "MEAN_ANOMALY": 320.6622, "EPHEMERIS_TYPE": 0, "CLASSIFICATION_TYPE": "U", "NORAD_CAT_ID": 33376, "ELEMENT_SET_NO": 999, "REV_AT_EPOCH": 6311, "BSTAR": 0, "MEAN_MOTION_DOT": -1.16e-06, "MEAN_MOTION_DDOT": 0}, "tle": {"line1": "1 33376U 08045A   25354.67464229 -.00000116  00000+0  00000+0 0  9995", "line2": "2 33376   0.0149 308.6931 0002520 326.0211 320.6622  1.00271403 63112"}}, "geometry": {"type": "Point", "coordinates": [52.2085776283357, 0.03087582874670852]}}, {"type": "Feature", "properties": {"norad_id": 35493, "name": "FM-5", "group": "intelsat", "lat": 0.03131114638763569, "lon": 63.03599196164727, "alt_km": 35786.81212507516, "timestamp": "2025-12-21T03:56:50.522026+00:00", "meta": {"OBJECT_NAME": "FM-5", "OBJECT_ID": "2009-034A", "EPOCH": "2025-12-20T14:32:01.120128", "MEAN_MOTION": 1.00270592, "ECCENTRICITY": 0.0001208, "INCLINATION": 0.0236, "RA_OF_ASC_NODE": 289.9079, "ARG_OF_PERICENTER": 227.417, "MEAN_ANOMALY": 63.9794, "EPHEMERIS_TYPE": 0, "CLASSIFICATION_TYPE": "U", "NORAD_CAT_ID": 35493, "ELEMENT_SET_NO": 999, "REV_AT_EPOCH": 4485, "BSTAR": 0, "MEAN_MOTION_DOT": -1.77e-06, "MEAN_MOTION_DDOT": 0}, "tle": {"line1": "1 35493U 09034A   25354.60556852 -.00000177  00000+0  00000+0 0  9990", "line2": "2 35493   0.0236 289.9079 0001208 227.4170  63.9794  1.00270592 44850"}}, "geometry": {"type": "Point", "coordinates": [63.03599196164727, 0.03131114638763569]}}, {"type": "Feature", "properties": {"norad_id": 36097, "name": "INTELSAT 14 (IS-14)", "group": "intelsat", "lat": 0.037878970929329236, "lon": 104.19562928883171, "alt_km": 35796.78432266581, "timestamp": "2025-12-21T03:56:50.522037+00:00", "meta": {"OBJECT_NAME": "INTELSAT 14 (IS-14)", "OBJECT_ID": "2009-064A", "EPOCH": "2025-12-20T18:09:08.741088", "MEAN_MOTION": 1.00270803, "ECCENTRICITY": 0.0002455, "INCLINATION": 0.0113, "RA_OF_ASC_NODE": 6.4119, "ARG_OF_PERICENTER": 274.7951, "MEAN_ANOMALY": 35.6741, "EPHEMERIS_TYPE": 0, "CLASSIFICATION_TYPE": "U", "NORAD_CAT_ID": 36097, "ELEMENT_SET_NO": 999, "REV_AT_EPOCH": 5881, "BSTAR": 0, "MEAN_MOTION_DOT": -2.5e-06, "MEAN_MOTION_DDOT": 0}, "tle": {"line1": "1 36097U 09064A   25354.75635117 -.00000250  00000+0  00000+0 0  9994", "line2": "2 36097   0.0113   6.4119 0002455 274.7951  35.6741  1.00270803 58813"}}, "geometry": {"type": "Point", "coordinates": [104.19562928883171, 0.037878970929329236]}}, {"type": "Feature", "properties": {"norad_id": 36106, "name": "INTELSAT 15 (IS-15)", "group": "intelsat", "lat": -0.03757251722686892, "lon": -125.66586897674031, "alt_km": 35779.76897433602, "timestamp": "2025-12-21T03:56:50.522047+00:00", "meta": {"OBJECT_NAME": "INTELSAT 15 (IS-15)", "OBJECT_ID": "2009-067A", "EPOCH": "2025-12-20T19:47:44.480832", "MEAN_MOTION": 1.00271898, "ECCENTRICITY": 0.0002148, "INCLINATION": 0.0154, "RA_OF_ASC_NODE": 340.7421, "ARG_OF_PERICENTER": 299.8365, "MEAN_ANOMALY": 191.1722, "EPHEMERIS_TYPE": 0, "CLASSIFICATION_TYPE": "U", "NORAD_CAT_ID": 36106, "ELEMENT_SET_NO": 999, "REV_AT_EPOCH": 3944, "BSTAR": 0, "MEAN_MOTION_DOT": -1.62e-06, "MEAN_MOTION_DDOT": 0}, "tle": {"line1": "1 36106U 09067A   25354.82482038 -.00000162  00000+0  00000+0 0  9990", "line2": "2 36106   0.0154 340.7421 0002148 299.8365 191.1722  1.00271898 39445"}}, "geometry": {"type": "Point", "coordinates": [-125.66586897674031, -0.03757251722686892]}}, {"type": "Feature", "properties": {"norad_id": 36131, "name": "DIRECTV 12", "group": "intelsat", "lat": 0.004830904800231499, "lon": 46.48364676400107, "alt_km": 35785.187050498986, "timestamp": "2025-12-21T03:56:50.522058+00:00", "meta": {"OBJECT_NAME": "DIRECTV 12", "OBJECT_ID": "2009-075A", "EPOCH": "2025-12-20T14:27:16.573824", "MEAN_MOTION": 1.00272128, "ECCENTRICITY": 3.97e-05, "INCLINATION": 0.0131, "RA_OF_ASC_NODE": 87.5384, "ARG_OF_PERICENTER": 257.995, "MEAN_ANOMALY": 218.0087, "EPHEMERIS_TYPE": 0, "CLASSIFICATION_TYPE": "U", "NORAD_CAT_ID": 36131, "ELEMENT_SET_NO": 999, "REV_AT_EPOCH": 4476, "BSTAR": 0, "MEAN_MOTION_DOT": -8e-07, "MEAN_MOTION_DDOT": 0}, "tle": {"line1": "1 36131U 09075A   25354.60227516 -.00000080  00000+0  00000+0 0  9990", "line2": "2 36131   0.0131  87.5384 0000397 257.9950 218.0087  1.00272128 44762"}}, "geometry": {"type": "Point", "coordinates": [46.48364676400107, 0.004830904800231499]}}, {"type": "Feature", "properties": {"norad_id": 36397, "name": "INTELSAT 16 (IS-16)", "group": "intelsat", "lat": 0.03725713008843114, "lon": 73.026686237354, "alt_km": 35793.036858128566, "timestamp": "2025-12-21T03:56:50.522069+00:00", "meta": {"OBJECT_NAME": "INTELSAT 16 (IS-16)", "OBJECT_ID": "2010-006A", "EPOCH": "2025-12-20T11:26:34.478880", "MEAN_MOTION": 1.00277419, "ECCENTRICITY": 0.00021478, "INCLINATION": 0.0116, "RA_OF_ASC_NODE": 344.1839, "ARG_OF_PERICENTER": 290.2193, "MEAN_ANOMALY": 270.3649, "EPHEMERIS_TYPE": 0, "CLASSIFICATION_TYPE": "U", "NORAD_CAT_ID": 36397, "ELEMENT_SET_NO": 999, "REV_AT_EPOCH": 5786, "BSTAR": 0, "MEAN_MOTION_DOT": -2.21e-06, "MEAN_MOTION_DDOT": 0}, "tle": {"line1": "1 36397U 10006A   25354.47678795 -.00000221  00000+0  00000+0 0  9991", "line2": "2 36397   0.0116 344.1839 0002147 290.2193 270.3649  1.00277419 57868"}}, "geometry": {"type": "Point", "coordinates": [73.026686237354, 0.03725713008843114]}}, {"type": "Feature", "properties": {"norad_id": 37185, "name": "XM-5", "group": "intelsat", "lat": 0.06316680577740057, "lon": 34.01101883067179, "alt_km": 35788.653953047564, "timestamp": "2025-12-21T03:56:50.522080+00:00", "meta": {"OBJECT_NAME": "XM-5", "OBJECT_ID": "2010-053A", "EPOCH": "2025-12-20T11:05:14.664192", "MEAN_MOTION": 1.00280251, "ECCENTRICITY": 0.00020369, "INCLINATION": 0.0654, "RA_OF_ASC_NODE": 270.4731, "ARG_OF_PERICENTER": 249.3201, "MEAN_ANOMALY": 340.6321, "EPHEMERIS_TYPE": 0, "CLASSIFICATION_TYPE": "U", "NORAD_CAT_ID": 37185, "ELEMENT_SET_NO": 999, "REV_AT_EPOCH": 5569, "BSTAR": 0, "MEAN_MOTION_DOT": -1e-08, "MEAN_MOTION_DDOT": 0}, "tle": {"line1": "1 37185U 10053A   25354.46197528 -.00000001  00000+0  00000+0 0  9994", "line2": "2 37185   0.0654 270.4731 0002036 249.3201 340.6321  1.00280251 55690"}}, "geometry": {"type": "Point", "coordinates": [34.01101883067179, 0.06316680577740057]}}, {"type": "Feature", "properties": {"norad_id": 37238, "name": "INTELSAT 17 (IS-17)", "group": "intelsat", "lat": 0.005135080180267038, "lon": -144.86850312565764, "alt_km": 35783.292733265975, "timestamp": "2025-12-21T03:56:50.522090+00:00", "meta": {"OBJECT_NAME": "INTELSAT 17 (IS-17)", "OBJECT_ID": "2010-065B", "EPOCH": "2025-12-20T20:06:02.319840", "MEAN_MOTION": 1.00271489, "ECCENTRICITY": 0.0002818, "INCLINATION": 0.0304, "RA_OF_ASC_NODE": 70.3315, "ARG_OF_PERICENTER": 221.1522, "MEAN_ANOMALY": 165.6652, "EPHEMERIS_TYPE": 0, "CLASSIFICATION_TYPE": "U", "NORAD_CAT_ID": 37238, "ELEMENT_SET_NO": 999, "REV_AT_EPOCH": 5146, "BSTAR": 0, "MEAN_MOTION_DOT": 0, "MEAN_MOTION_DDOT": 0}, "tle": {"line1": "1 37238U 10065B   25354.83752685  .00000000  00000+0  00000+0 0  9996", "line2": "2 37238   0.0304  70.3315 0002818 221.1522 165.6652  1.00271489 51464"}}, "geometry": {"type": "Point", "coordinates": [-144.86850312565764, 0.005135080180267038]}}, {"type": "Feature", "properties": {"norad_id": 37392, "name": "INTELSAT 28 (IS-28)", "group": "intelsat", "lat": 0.7472790657964169, "lon": 117.46669813478658, "alt_km": 35800.82037013347, "timestamp": "2025-12-21T03:56:50.522101+00:00", "meta": {"OBJECT_NAME": "INTELSAT 28 (IS-28)", "OBJECT_ID": "2011-016A", "EPOCH": "2025-12-20T18:12:53.382816", "MEAN_MOTION": 1.00269805, "ECCENTRICITY": 0.0003683, "INCLINATION": 1.3441, "RA_OF_ASC_NODE": 84.9706, "ARG_OF_PERICENTER": 188.4044, "MEAN_ANOMALY": 57.7386, "EPHEMERIS_TYPE": 0, "CLASSIFICATION_TYPE": "U", "NORAD_CAT_ID": 37392, "ELEMENT_SET_NO": 999, "REV_AT_EPOCH": 5149, "BSTAR": 0, "MEAN_MOTION_DOT": -2.03e-06, "MEAN_MOTION_DDOT": 0}, "tle": {"line1": "1 37392U 11016A   25354.75895119 -.00000203  00000+0  00000+0 0  9991", "line2": "2 37392   1.3441  84.9706 0003683 188.4044  57.7386  1.00269805 51498"}}, "geometry": {"type": "Point", "coordinates": [117.46669813478658, 0.7472790657964169]}}]}